{"type": "FeatureCollection", "features": [ {"type": "Feature", "properties": {"norad_id": 31615, "name": "FENGYUN 1C DEB", "group": "fengyun-1c-debris", "lat": -63.49295834425654, "lon": -148.952476207429, "alt_km": 687.5313579022823, "timestamp": "2025-12-23T18:59:32.250160+00:00", "meta": {"OBJECT_NAME": "FENGYUN 1C DEB", "OBJECT_ID": "1999-025BZV", "EPOCH": "2025-12-21T08:57:52.591968", "MEAN_MOTION": 14.35488145, "ECCENTRICITY": 0.01666483, "INCLINATION": 99.1375, "RA_OF_ASC_NODE": 47.3142, "ARG_OF_PERICENTER": 291.3444, "MEAN_ANOMALY": 67.0025, "EPHEMERIS_TYPE": 0, "CLASSIFICATION_TYPE": "U", "NORAD_CAT_ID": 31615, "ELEMENT_SET_NO": 999, "REV_AT_EPOCH": 65402, "BSTAR": 0.0021985548, "MEAN_MOTION_DOT": 7.354e-05, "MEAN_MOTION_DDOT": 0}, "tle": {"line1": "1 31615U 99025BZV 25355.37352537  .00007354  00000+0  21986-2 0  9992", "line2": "2 31615  99.1375  47.3142 0166648 291.3444  67.0025 14.35488145654021"}}, "geometry": {"type": "Point", "coordinates": [-148.952476207429, -63.49295834425654]}}, {"type": "Feature", "properties": {"norad_id": 31618, "name": "FENGYUN 1C DEB", "group": "fengyun-1c-debris", "lat": 76.8963706224395, "lon": 7.131442917120665, "alt_km": 923.2485175109296, "timestamp": "2025-12-23T18:59:32.250169+00:00", "meta": {"OBJECT_NAME": "FENGYUN 1C DEB", "OBJECT_ID": "1999-025BZY", "EPOCH": "2025-12-23T05:00:13.341600", "MEAN_MOTION": 14.21035882, "ECCENTRICITY": 0.0156931, "INCLINATION": 99.4438, "RA_OF_ASC_NODE": 140.8629, "ARG_OF_PERICENTER": 296.392, "MEAN_ANOMALY": 62.1219, "EPHEMERIS_TYPE": 0, "CLASSIFICATION_TYPE": "U", "NORAD_CAT_ID": 31618, "ELEMENT_SET_NO": 999, "REV_AT_EPOCH": 70413, "BSTAR": 0.00031508967, "MEAN_MOTION_DOT": 7.22e-06, "MEAN_MOTION_DDOT": 0}, "tle": {"line1": "1 31618U 99025BZY 25357.20848775  .00000722  00000+0  31509-3 0  9998", "line2": "2 31618  99.4438 140.8629 0156931 296.3920  62.1219 14.21035882704134"}}, "geometry": {"type": "Point", "coordinates": [7.131442917120665, 76.8963706224395]}}, {"type": "Feature", "properties": {"norad_id": 31619, "name": "FENGYUN 1C DEB", "group": "fengyun-1c-debris", "lat": 78.25215180776067, "lon": 62.095606356044634, "alt_km": 664.753759001992, "timestamp": "2025-12-23T18:59:32.250178+00:00", "meta": {"OBJECT_NAME": "FENGYUN 1C DEB", "OBJECT_ID": "1999-025BZZ", "EPOCH": "2025-12-21T06:45:55.955232", "MEAN_MOTION": 14.86149354, "ECCENTRICITY": 0.0094151, "INCLINATION": 99.071, "RA_OF_ASC_NODE": 189.0401, "ARG_OF_PERICENTER": 268.2208, "MEAN_ANOMALY": 90.8218, "EPHEMERIS_TYPE": 0, "CLASSIFICATION_TYPE": "U", "NORAD_CAT_ID": 31619, "ELEMENT_SET_NO": 999, "REV_AT_EPOCH": 63615, "BSTAR": 0.0037749, "MEAN_MOTION_DOT": 0.00035976, "MEAN_MOTION_DDOT": 0}, "tle": {"line1": "1 31619U 99025BZZ 25355.28189763  .00035976  00000+0  37749-2 0  9990", "line2": "2 31619  99.0710 189.0401 0094151 268.2208  90.8218 14.86149354636153"}}, "geometry": {"type": "Point", "coordinates": [62.095606356044634, 78.25215180776067]}}, {"type": "Feature", "properties": {"norad_id": 31620, "name": "FENGYUN 1C DEB", "group": "fengyun-1c-debris", "lat": -54.1289761791381, "lon": 94.73448521943595, "alt_km": 767.9133203893498, "timestamp": "2025-12-23T18:59:32.250187+00:00", "meta": {"OBJECT_NAME": "FENGYUN 1C DEB", "OBJECT_ID": "1999-025CAA", "EPOCH": "2025-12-18T12:16:26.023584", "MEAN_MOTION": 14.37303737, "ECCENTRICITY": 0.00195289, "INCLINATION": 98.8873, "RA_OF_ASC_NODE": 76.7848, "ARG_OF_PERICENTER": 23.9081, "MEAN_ANOMALY": 336.3007, "EPHEMERIS_TYPE": 0, "CLASSIFICATION_TYPE": "U", "NORAD_CAT_ID": 31620, "ELEMENT_SET_NO": 999, "REV_AT_EPOCH": 65927, "BSTAR": 0.0019950798, "MEAN_MOTION_DOT": 5.921e-05, "MEAN_MOTION_DDOT": 0}, "tle": {"line1": "1 31620U 99025CAA 25352.51141231  .00005921  00000+0  19951-2 0  9995", "line2": "2 31620  98.8873  76.7848 0019528  23.9081 336.3007 14.37303737659274"}}, "geometry": {"type": "Point", "coordinates": [94.73448521943595, -54.1289761791381]}}, {"type": "Feature", "properties": {"norad_id": 31622, "name": "FENGYUN 1C DEB", "group": "fengyun-1c-debris", "lat": -70.5641442545214, "lon": 118.93175843128633, "alt_km": 764.5337448752662, "timestamp": "2025-12-23T18:59:32.250196+00:00", "meta": {"OBJECT_NAME": "FENGYUN 1C DEB", "OBJECT_ID": "1999-025CAC", "EPOCH": "2025-12-21T05:38:37.239072", "MEAN_MOTION": 14.3726207, "ECCENTRICITY": 0.0015203, "INCLINATION": 98.8168, "RA_OF_ASC_NODE": 90.2179, "ARG_OF_PERICENTER": 314.9507, "MEAN_ANOMALY": 73.8848, "EPHEMERIS_TYPE": 0, "CLASSIFICATION_TYPE": "U", "NORAD_CAT_ID": 31622, "ELEMENT_SET_NO": 999, "REV_AT_EPOCH": 95894, "BSTAR": 0.0013467, "MEAN_MOTION_DOT": 3.974e-05, "MEAN_MOTION_DDOT": 0}, "tle": {"line1": "1 31622U 99025CAC 25355.23515323  .00003974  00000+0  13467-2 0  9998", "line2": "2 31622  98.8168  90.2179 0015203 314.9507  73.8848 14.37262070958949"}}, "geometry": {"type": "Point", "coordinates": [118.93175843128633, -70.5641442545214]}}, {"type": "Feature", "properties": {"norad_id": 31623, "name": "FENGYUN 1C DEB", "group": "fengyun-1c-debris", "lat": -27.920696404604673, "lon": 23.21940597819069, "alt_km": 1044.9922992165284, "timestamp": "2025-12-23T18:59:32.250205+00:00", "meta": {"OBJECT_NAME": "FENGYUN 1C DEB", "OBJECT_ID": "1999-025CAD", "EPOCH": "2025-12-22T19:23:51.435744", "MEAN_MOTION": 13.82604829, "ECCENTRICITY": 0.01941743, "INCLINATION": 97.6285, "RA_OF_ASC_NODE": 206.4945, "ARG_OF_PERICENTER": 338.158, "MEAN_ANOMALY": 21.1382, "EPHEMERIS_TYPE": 0, "CLASSIFICATION_TYPE": "U", "NORAD_CAT_ID": 31623, "ELEMENT_SET_NO": 999, "REV_AT_EPOCH": 58059, "BSTAR": 0.00035445246, "MEAN_MOTION_DOT": 4.12e-06, "MEAN_MOTION_DDOT": 0}, "tle": {"line1": "1 31623U 99025CAD 25356.80823421  .00000412  00000+0  35445-3 0  9999", "line2": "2 31623  97.6285 206.4945 0194174 338.1580  21.1382 13.82604829580595"}}, "geometry": {"type": "Point", "coordinates": [23.21940597819069, -27.920696404604673]}}, {"type": "Feature", "properties": {"norad_id": 31625, "name": "FENGYUN 1C DEB", "group": "fengyun-1c-debris", "lat": -80.98144648315579, "lon": -173.1694386829285, "alt_km": 684.9687697553309, "timestamp": "2025-12-23T18:59:32.250214+00:00", "meta": {"OBJECT_NAME": "FENGYUN 1C DEB", "OBJECT_ID": "1999-025CAF", "EPOCH": "2025-12-23T04:41:36.345120", "MEAN_MOTION": 14.55413828, "ECCENTRICITY": 0.01486664, "INCLINATION": 98.8053, "RA_OF_ASC_NODE": 83.7875, "ARG_OF_PERICENTER": 343.9389, "MEAN_ANOMALY": 45.9566, "EPHEMERIS_TYPE": 0, "CLASSIFICATION_TYPE": "U", "NORAD_CAT_ID": 31625, "ELEMENT_SET_NO": 999, "REV_AT_EPOCH": 98545, "BSTAR": 0.00014025049, "MEAN_MOTION_DOT": 6.46e-06, "MEAN_MOTION_DDOT": 0}, "tle": {"line1": "1 31625U 99025CAF 25357.19555955  .00000646  00000+0  14025-3 0  9998", "line2": "2 31625  98.8053  83.7875 0148666 343.9389  45.9566 14.55413828985457"}}, "geometry": {"type": "Point", "coordinates": [-173.1694386829285, -80.98144648315579]}}, {"type": "Feature", "properties": {"norad_id": 31627, "name": "FENGYUN 1C DEB", "group": "fengyun-1c-debris", "lat": 71.80393535112132, "lon": 18.370341333844774, "alt_km": 740.6782885883213, "timestamp": "2025-12-23T18:59:32.250223+00:00", "meta": {"OBJECT_NAME": "FENGYUN 1C DEB", "OBJECT_ID": "1999-025CAH", "EPOCH": "2025-11-26T09:13:22.975680", "MEAN_MOTION": 14.35408996, "ECCENTRICITY": 0.00515931, "INCLINATION": 98.5313, "RA_OF_ASC_NODE": 18.4415, "ARG_OF_PERICENTER": 201.9005, "MEAN_ANOMALY": 157.9975, "EPHEMERIS_TYPE": 0, "CLASSIFICATION_TYPE": "U", "NORAD_CAT_ID": 31627, "ELEMENT_SET_NO": 999, "REV_AT_EPOCH": 64532, "BSTAR": 0.0013473839, "MEAN_MOTION_DOT": 3.885e-05, "MEAN_MOTION_DDOT": 0}, "tle": {"line1": "1 31627U 99025CAH 25330.38429370  .00003885  00000+0  13474-2 0  9997", "line2": "2 31627  98.5313  18.4415 0051593 201.9005 157.9975 14.35408996645325"}}, "geometry": {"type": "Point", "coordinates": [18.370341333844774, 71.80393535112132]}}, {"type": "Feature", "properties": {"norad_id": 31628, "name": "FENGYUN 1C DEB", "group": "fengyun-1c-debris", "lat": -77.5291377482319, "lon": -43.716348591827405, "alt_km": 911.182550211006, "timestamp": "2025-12-23T18:59:32.250232+00:00", "meta": {"OBJECT_NAME": "FENGYUN 1C DEB", "OBJECT_ID": "1999-025CAJ", "EPOCH": "2025-12-22T20:56:07.090656", "MEAN_MOTION": 13.86878288, "ECCENTRICITY": 0.0167706, "INCLINATION": 102.2706, "RA_OF_ASC_NODE": 214.8323, "ARG_OF_PERICENTER": 195.9102, "MEAN_ANOMALY": 163.6736, "EPHEMERIS_TYPE": 0, "CLASSIFICATION_TYPE": "U", "NORAD_CAT_ID": 31628, "ELEMENT_SET_NO": 999, "REV_AT_EPOCH": 93440, "BSTAR": 0.0016777, "MEAN_MOTION_DOT": 2.121e-05, "MEAN_MOTION_DDOT": 0}, "tle": {"line1": "1 31628U 99025CAJ 25356.87230429  .00002121  00000+0  16777-2 0  9996", "line2": "2 31628 102.2706 214.8323 0167706 195.9102 163.6736 13.86878288934408"}}, "geometry": {"type": "Point", "coordinates": [-43.716348591827405, -77.5291377482319]}}, {"type": "Feature", "properties": {"norad_id": 31629, "name": "FENGYUN 1C DEB", "group": "fengyun-1c-debris", "lat": -1.0535828857461944, "lon": -132.58561549358816, "alt_km": 921.0256003583936, "timestamp": "2025-12-23T18:59:32.250241+00:00", "meta": {"OBJECT_NAME": "FENGYUN 1C DEB", "OBJECT_ID": "1999-025CAK", "EPOCH": "2025-12-22T21:46:19.265952", "MEAN_MOTION": 14.1470932, "ECCENTRICITY": 0.0103695, "INCLINATION": 102.1329, "RA_OF_ASC_NODE": 46.4435, "ARG_OF_PERICENTER": 1.0988, "MEAN_ANOMALY": 359.0383, "EPHEMERIS_TYPE": 0, "CLASSIFICATION_TYPE": "U", "NORAD_CAT_ID": 31629, "ELEMENT_SET_NO": 999, "REV_AT_EPOCH": 94590, "BSTAR": 0.0024639, "MEAN_MOTION_DOT": 4.928e-05, "MEAN_MOTION_DDOT": 0}, "tle": {"line1": "1 31629U 99025CAK 25356.90716743  .00004928  00000+0  24639-2 0  9992", "line2": "2 31629 102.1329  46.4435 0103695   1.0988 359.0383 14.14709320945906"}}, "geometry": {"type": "Point", "coordinates": [-132.58561549358816, -1.0535828857461944]}}]}